SES-7 (PROTOSTAR 2)     
1 34941U 09027A   21251.55423188 -.00000351  00000-0  00000-0 0  9996
2 34941   0.0179 113.9367 0001334  97.3937  84.2842  1.00273477 45142
MEASAT-3A               
1 35362U 09032A   21251.40734347 -.00000247  00000-0  00000-0 0  9990
2 35362   0.0472 230.4592 0002842 324.5021  30.8859  1.00269322 44772
GOES 14                 
1 35491U 09033A   21251.57630532 -.00000100  00000-0  00000-0 0  9991
2 35491   0.4087 280.0165 0014956 290.1724 240.9061  1.00271982 44645
FM-5                    
1 35493U 09034A   21251.48858558 -.00000206  00000-0  00000-0 0  9991
2 35493   0.0405 309.6739 0000635  84.6284  43.2089  1.00270104 29178
TERRESTAR-1             
1 35496U 09035A   21251.52499948 -.00000060  00000-0  00000-0 0  9992
2 35496   2.8540  31.7506 0002740 138.8479 255.2075  1.00271875 44660
ASIASAT 5               
1 35696U 09042A   21251.52202206 -.00000313  00000-0  00000-0 0  9992
2 35696   0.0328 253.1780 0001340 278.0684 104.9712  1.00269798 44210
JCSAT-RA (JCSAT-12)     
1 35755U 09044A   21251.55768595 -.00000037  00000-0  00000-0 0  9994
2 35755   0.0854 264.7170 0002440 267.6975 185.0988  1.00272265 44139
OPTUS D3                
1 35756U 09044B   21251.34838399 -.00000153  00000-0  00000-0 0  9991
2 35756   0.0554 355.6451 0002351 167.0606 106.3414  1.00270883 44082
NIMIQ 5                 
1 35873U 09050A   21251.49799817 -.00000262  00000-0  00000-0 0  9996
2 35873   0.0514 284.2496 0002934 255.7661 274.3488  1.00270585 43879
AMAZONAS 2              
1 35942U 09054A   21251.50562052 -.00000288  00000-0  00000-0 0  9996
2 35942   0.0270 141.5516 0005220  19.6647 307.6099  1.00271872 43716
COMSATBW-1              
1 35943U 09054B   21251.50743981  .00000018  00000-0  00000-0 0  9999
2 35943   0.0455  96.3501 0003046  70.5924  66.5415  1.00271706 43833
NSS-12                  
1 36032U 09058A   21251.60351120  .00000065  00000-0  00000-0 0  9996
2 36032   0.0520 301.7356 0002697 236.6379  83.7710  1.00272472 43444
THOR 6                  
1 36033U 09058B   21251.31707267 -.00000016  00000-0  00000-0 0  9999
2 36033   0.0280 241.5204 0001802 295.1187 284.2618  1.00272027 43525
INTELSAT 14 (IS-14)     
1 36097U 09064A   21251.45182472 -.00000279  00000-0  00000-0 0  9997
2 36097   0.0029 181.0520 0002094 347.9411 296.4085  1.00271162 43145
EUTELSAT 36B            
1 36101U 09065A   21251.53975368  .00000149  00000-0  00000-0 0  9992
2 36101   0.0688   3.8169 0004719 161.7970  52.3987  1.00271205 43249
INTELSAT 15 (IS-15)     
1 36106U 09067A   21251.54960932 -.00000191  00000-0  00000-0 0  9999
2 36106   0.0364 296.3904 0002325 242.2137  92.2406  1.00271062 23756
WGS F3 (USA 211)        
1 36108U 09068A   21251.51585568  .00000013  00000-0  00000+0 0  9998
2 36108   0.0385 110.4058 0000218 123.5944 177.6023  1.00271412 43049
DIRECTV 12              
1 36131U 09075A   21251.53174288 -.00000109  00000-0  00000-0 0  9995
2 36131   0.0412 309.9765 0000029 250.8289 235.7236  1.00271704 29086
BEIDOU 3                
1 36287U 10001A   21250.49771508 -.00000286  00000-0  00000-0 0  9996
2 36287   2.0020  49.2051 0005681  92.6228 164.6048  1.00270880 42676
RADUGA-1M 2             
1 36358U 10002A   21251.54952212 -.00000190  00000-0  00000-0 0  9990
2 36358   0.0882 255.9662 0002269 284.5725  90.1211  1.00271799 32625
SDO                     
1 36395U 10005A   21250.14845260 -.00000066  00000-0  00000-0 0  9995
2 36395  31.1099 113.8563 0000635 324.3086 219.8486  1.00275347 42573
INTELSAT 16 (IS-16)     
1 36397U 10006A   21251.51742583 -.00000250  00000-0  00000-0 0  9999
2 36397   0.0226 255.4382 0002362 284.3483 278.0889  1.00270934 42176
GOES 15                 
1 36411U 10008A   21251.61203024  .00000048  00000-0  00000-0 0  9995
2 36411   0.4388 275.5346 0002534 166.5923 357.8988  1.00274691 42204
ECHOSTAR 14             
1 36499U 10010A   21251.52005751 -.00000005  00000-0  00000-0 0  9995
2 36499   0.0173 193.4158 0002875 331.2884 251.4219  1.00270746 29086
SES-1                   
1 36516U 10016A   21251.53280612 -.00000120  00000-0  00000-0 0  9991
2 36516   0.0254  95.4254 0002422  68.2571 274.9281  1.00271191 41563
ASTRA 3B                
1 36581U 10021A   21251.32178245  .00000131  00000-0  00000-0 0  9995
2 36581   0.0710  72.6505 0003505  95.6482 318.6289  1.00270803 41402
COMSATBW-2              
1 36582U 10021B   21251.31986366  .00000083  00000-0  00000-0 0  9992
2 36582   0.0253 149.0984 0002583  42.0394 284.8442  1.00275333 41484
BADR-5                  
1 36592U 10025A   21251.53774767  .00000139  00000-0  00000-0 0  9993
2 36592   0.0140 157.9806 0005613  12.5533  36.8609  1.00275046 35748
COMS 1                  
1 36744U 10032A   21251.55815669 -.00000350  00000-0  00000-0 0  9995
2 36744   0.4204  95.8830 0000814  66.1997 154.8592  1.00270893 33617
ARABSAT-5A              
1 36745U 10032B   21251.51854872  .00000147  00000-0  00000-0 0  9994
2 36745   0.0587  32.3176 0004929 145.4373  27.1916  1.00271041 41175
ECHOSTAR 15             
1 36792U 10034A   21251.42979965 -.00000288  00000-0  00000-0 0  9996
2 36792   0.0516 300.2003 0002272 193.8114 306.7562  1.00274650 40850
BEIDOU 5                
1 36828U 10036A   21251.58394264 -.00000141  00000-0  00000-0 0  9996
2 36828  54.1843 178.8266 0023203 182.9036 303.4337  1.00279608 40753
NILESAT 201             
1 36830U 10037A   21251.38763216 -.00000063  00000-0  00000-0 0  9998
2 36830   0.0380 171.8020 0005267 342.4303 325.9928  1.00271376 40897
RASCOM-QAF 1R           
1 36831U 10037B   21251.31785764  .00000012  00000-0  00000-0 0  9997
2 36831   0.0183 144.5491 0004929  36.7783 283.5685  1.00271842 40827
AEHF-1 (USA 214)        
1 36868U 10039A   21251.31803207  .00000021  00000-0  00000-0 0  9992
2 36868   3.8255  90.6089 0005924  38.3123 337.1570  1.00269386 36187
CHINASAT 6A (ZX 6A)     
1 37150U 10042A   21251.20593374 -.00000360  00000-0  00000-0 0  9997
2 37150   0.0158 234.0691 0001484 252.7129  59.9156  1.00268819 40422
QZS-1 (MICHIBIKI-1)     
1 37158U 10045A   21251.55833115 -.00000151  00000-0  00000-0 0  9994
2 37158  42.0381 137.3053 0745755 270.1641 279.2755  1.00301476 40261
XM-5                    
1 37185U 10053A   21251.41429399 -.00000211  00000-0  00000-0 0  9990
2 37185   0.0173 194.5400 0001044  29.6182 187.5876  1.00270270 40002
BSAT-3B                 
1 37207U 10056B   21251.61763182 -.00000356  00000-0  00000-0 0  9991
2 37207   0.0907 306.8072 0001724 305.3465  67.9403  1.00270319 34664
BEIDOU 6                
1 37210U 10057A   21251.49273002 -.00000118  00000-0  00000-0 0  9995
2 37210   0.9806  55.1089 0006535 134.9909 135.0596  1.00271207 39809
SKYTERRA 1              
1 37218U 10061A   21251.53273536 -.00000122  00000-0  00000-0 0  9990
2 37218   2.1971  20.8962 0002439 175.9332 241.4791  1.00271749 39728
ZHONGXING-20A           
1 37234U 10064A   21251.51091074 -.00000355  00000-0  00000-0 0  9992
2 37234   1.9427  91.7935 0002383  82.5656 123.7744  1.00272219 39550
HYLAS 1                 
1 37237U 10065A   21251.56862287  .00000091  00000-0  00000-0 0  9999
2 37237   1.2085  93.1252 0001211 178.0135 102.2058  1.00583122 39509
INTELSAT 17 (IS-17)     
1 37238U 10065B   21251.54577174 -.00000008  00000-0  00000-0 0  9995
2 37238   0.0259 210.0019 0002856 324.6569  75.6363  1.00271951 35767
BEIDOU 7                
1 37256U 10068A   21251.55388301 -.00000169  00000-0  00000-0 0  9999
2 37256  50.7171 293.0132 0019962 183.8944 177.9269  1.00305413 39325
EUTELSAT KA-SAT 9A      
1 37258U 10069A   21251.31907869  .00000056  00000-0  00000-0 0  9996
2 37258   0.0921 269.6485 0004721 225.1359 336.7073  1.00270846 26522
HISPASAT 30W-5          
1 37264U 10070A   21251.38309682 -.00000221  00000-0  00000-0 0  9996
2 37264   0.0136 147.6235 0005462  12.7243 295.2578  1.00273210 35707
KOREASAT 6              
1 37265U 10070B   21251.55571458 -.00000368  00000-0  00000-0 0  9990
2 37265   0.0160 156.1879 0001568  15.7104 132.0020  1.00272123 39296
BEIDOU 8                
1 37384U 11013A   21251.40961113 -.00000148  00000-0  00000-0 0  9991
2 37384  59.8912  57.0649 0018202 179.4548   4.5409  1.00284008 38199
INTELSAT NEW DAWN       
1 37392U 11016A   21251.51854872  .00000150  00000-0  00000-0 0  9990
2 37392   0.0281 226.1937 0001316 289.2048  51.8692  1.00272775 35810
YAHSAT 1A               
1 37393U 11016B   21251.25257626  .00000095  00000-0  00000-0 0  9994
2 37393   0.0250 155.9225 0001098 313.8886  21.1368  1.00268747 24921
SBIRS GEO-1 (USA 230)   
1 37481U 11019A   21251.54577174 -.00000013  00000-0  00000-0 0  9991
2 37481   1.8048   7.1834 0002330 159.6827  83.6328  1.00272111 37921
TELSTAR 14R             
1 37602U 11021A   21251.42979943 -.00000286  00000-0  00000-0 0  9998
2 37602   0.0458 321.6955 0000771 146.5819 331.1639  1.00270751 38344
GSAT-8                  
1 37605U 11022A   21251.50743981  .00000078  00000-0  00000-0 0  9990
2 37605   0.0216  92.3179 0004284 158.6412 334.5860  1.00272778 35740
ST-2                    
1 37606U 11022B   21251.61379100 -.00000217  00000-0  00000-0 0  9997
2 37606   0.0136 213.7642 0002022 339.3513 103.7205  1.00268341 37803
CHINASAT 10 (ZX 10)     
1 37677U 11026A   21251.61664830 -.00000358  00000-0  00000-0 0  9992
2 37677   0.0979 262.6350 0004825 273.7080 144.0771  1.00270516 37520
TIANLIAN 1-02           
1 37737U 11032A   21251.56670407 -.00000021  00000-0  00000-0 0  9994
2 37737   2.5004  74.7323 0020470  99.5511 188.5898  1.00271807 37248
GSAT-12                 
1 37746U 11034A   21251.54219579  .00000119  00000-0  00000-0 0  9990
2 37746   0.6687  95.9252 0009724   8.5798 126.4557  1.00271329 26022
SES-3                   
1 37748U 11035A   21251.53174326 -.00000108  00000-0  00000-0 0  9991
2 37748   0.0594 312.1133 0002674 216.9847 267.1546  1.00271603 37123
